NORAD_CAT_ID,OBJECT_NAME,OBJECT_TYPE,EPOCH,MEAN_MOTION,ECCENTRICITY,INCLINATION,RA_OF_ASC_NODE,ARG_OF_PERICENTER,MEAN_ANOMALY,BSTAR,MEAN_MOTION_DOT,MEAN_MOTION_DDOT,TLE_LINE0,TLE_LINE1,TLE_LINE2,SEMIMAJOR_AXIS,PERIOD,APOGEE,PERIGEE,DECAYED
55313.0,STARLINK-5313,PAYLOAD,2024-04-21 22:40:09,14.98304432,0.0002782,69.999,296.0172,260.3651,99.7194,-0.00029695,-3.632e-05,0.0,0 STARLINK-5313,1 55313U 23010AW  24112.94455837 -.00003632  00000-0 -29695-3 0  9998,2 55313  69.9990 296.0172 0002782 260.3651  99.7194 14.98304432 71779,6950.272,96.109,574.071,570.203,0.0
55313.0,STARLINK-5313,PAYLOAD,2024-04-22 11:29:12,14.98325819,0.0002394,70.0001,294.6713,268.5804,91.5081,9.4808e-05,1.038e-05,0.0,0 STARLINK-5313,1 55313U 23010AW  24113.47861823  .00001038  00000-0  94808-4 0  9998,2 55313  70.0001 294.6713 0002394 268.5804  91.5081 14.98325819 70663,6950.206,96.107,573.735,570.407,0.0
55313.0,STARLINK-5313,PAYLOAD,2024-04-22 19:29:52,14.9832708,0.0002363,70.0009,293.8293,257.1123,102.9772,0.00014066,1.586e-05,0.0,0 STARLINK-5313,1 55313U 23010AW  24113.81241701  .00001586  00000-0  14066-3 0  9998,2 55313  70.0009 293.8293 0002363 257.1123 102.9772 14.98327080 71903,6950.202,96.107,573.709,570.425,0.0
55313.0,STARLINK-5313,PAYLOAD,2024-04-23 13:07:20,14.98324624,0.0002718,70.0005,291.9773,265.3495,94.7353,0.00043421,5.091e-05,0.0,0 STARLINK-5313,1 55313U 23010AW  24114.54676725  .00005091  00000-0  43421-3 0  9999,2 55313  70.0005 291.9773 0002718 265.3495  94.7353 14.98324624 70822,6950.21,96.107,573.964,570.185,0.0
55313.0,STARLINK-5313,PAYLOAD,2024-04-23 14:43:28,14.98324244,0.0002801,70.0003,291.809,266.6033,93.4806,0.00041498,4.861e-05,0.0,0 STARLINK-5313,1 55313U 23010AW  24114.61352821  .00004861  00000-0  41498-3 0  9991,2 55313  70.0003 291.8090 0002801 266.6033  93.4806 14.98324244 72027,6950.211,96.107,574.022,570.129,0.0
55313.0,STARLINK-5313,PAYLOAD,2024-04-23 21:08:01,14.98325611,0.0002715,70.0002,291.1354,262.8124,97.2726,0.00037828,4.423e-05,0.0,0 STARLINK-5313,1 55313U 23010AW  24114.88056888  .00004423  00000-0  37828-3 0  9990,2 55313  70.0002 291.1354 0002715 262.8124  97.2726 14.98325611 72061,6950.206,96.107,573.958,570.184,0.0
55313.0,STARLINK-5313,PAYLOAD,2024-04-24 13:09:20,14.98352037,0.0003445,69.9991,289.4512,270.4162,89.6602,7.1743e-05,7.64e-06,0.0,0 STARLINK-5313,1 55313U 23010AW  24115.54815507  .00000764  00000-0  71743-4 0  9994,2 55313  69.9991 289.4512 0003445 270.4162  89.6602 14.98352037 70977,6950.125,96.106,574.384,569.595,0.0
55313.0,STARLINK-5313,PAYLOAD,2024-04-24 21:10:02,14.9832636,0.0003283,69.9996,288.6101,266.8137,93.2646,-0.00022326,-2.756e-05,0.0,0 STARLINK-5313,1 55313U 23010AW  24115.88197623 -.00002756  00000-0 -22326-3 0  9990,2 55313  69.9996 288.6101 0003283 266.8137  93.2646 14.98326360 71024,6950.204,96.107,574.351,569.787,0.0
55313.0,STARLINK-5313,PAYLOAD,2024-04-25 14:47:30,14.98332896,0.0003464,69.9992,286.7574,268.6041,91.4721,-0.00017564,-2.188e-05,0.0,0 STARLINK-5313,1 55313U 23010AW  24116.61632967 -.00002188  00000-0 -17564-3 0  9994,2 55313  69.9992 286.7574 0003464 268.6041  91.4721 14.98332896 72327,6950.184,96.107,574.456,569.641,0.0
55313.0,STARLINK-5313,PAYLOAD,2024-04-25 21:12:02,14.98338135,0.0003346,69.9994,286.085,267.0881,92.9896,-0.00010699,-1.37e-05,0.0,0 STARLINK-5313,1 55313U 23010AW  24116.88336359 -.00001370  00000-0 -10699-3 0  9993,2 55313  69.9994 286.0850 0003346 267.0881  92.9896 14.98338135 71176,6950.168,96.106,574.358,569.707,0.0
55313.0,STARLINK-5313,PAYLOAD,2024-04-26 13:13:23,14.98316266,0.0003234,69.9997,284.4016,263.4237,96.6554,0.00010145,1.117e-05,0.0,0 STARLINK-5313,1 55313U 23010AW  24117.55096889  .00001117  00000-0  10145-3 0  9992,2 55313  69.9997 284.4016 0003234 263.4237  96.6554 14.98316266 71270,6950.235,96.108,574.348,569.853,0.0
55313.0,STARLINK-5313,PAYLOAD,2024-04-26 14:49:31,14.98316193,0.0003238,69.9996,284.2334,263.4053,96.6737,9.8226e-05,1.079e-05,0.0,0 STARLINK-5313,1 55313U 23010AW  24117.61772959  .00001079  00000-0  98226-4 0  9992,2 55313  69.9996 284.2334 0003238 263.4053  96.6737 14.98316193 72475,6950.236,96.108,574.351,569.85,0.0
55313.0,STARLINK-5313,PAYLOAD,2024-04-27 13:15:24,14.98332349,0.000314,69.9996,281.8766,268.1628,91.9172,7.4337e-05,7.94e-06,0.0,0 STARLINK-5313,1 55313U 23010AW  24118.55236376  .00000794  00000-0  74337-4 0  9994,2 55313  69.9996 281.8766 0003140 268.1628  91.9172 14.98332349 71425,6950.186,96.107,574.233,569.868,0.0
55313.0,STARLINK-5313,PAYLOAD,2024-04-27 21:16:04,14.98334989,0.0003106,69.9996,281.0349,268.4092,91.6712,9.7966e-05,1.076e-05,0.0,0 STARLINK-5313,1 55313U 23010AW  24118.88616074  .00001076  00000-0  97966-4 0  9994,2 55313  69.9996 281.0349 0003106 268.4092  91.6712 14.98334989 72660,6950.177,96.107,574.201,569.884,0.0
55313.0,STARLINK-5313,PAYLOAD,2024-04-28 13:17:26,14.98320758,0.0002983,69.9999,279.3519,268.6741,91.4076,-6.0318e-05,-8.12e-06,0.0,0 STARLINK-5313,1 55313U 23010AW  24119.55377494 -.00000812  00000-0 -60318-4 0  9999,2 55313  69.9999 279.3519 0002983 268.6741  91.4076 14.98320758 71576,6950.221,96.108,574.16,570.013,0.0
55313.0,STARLINK-5313,PAYLOAD,2024-04-28 14:53:34,14.98320158,0.0002994,69.9998,279.1835,268.4952,91.5864,-6.6829e-05,-8.9e-06,0.0,0 STARLINK-5313,1 55313U 23010AW  24119.62053579 -.00000890  00000-0 -66829-4 0  9991,2 55313  69.9998 279.1835 0002994 268.4952  91.5864 14.98320158 72771,6950.223,96.108,574.169,570.007,0.0
55313.0,STARLINK-5313,PAYLOAD,2024-04-28 19:41:58,14.98320798,0.0003004,69.9996,278.678,270.8341,89.2473,-6.0514e-05,-8.15e-06,0.0,0 STARLINK-5313,1 55313U 23010AW  24119.82081639 -.00000815  00000-0 -60514-4 0  9993,2 55313  69.9996 278.6780 0003004 270.8341  89.2473 14.98320798 72808,6950.221,96.108,574.174,569.999,0.0
55313.0,STARLINK-5313,PAYLOAD,2024-04-29 03:42:38,14.9832673,0.0003016,69.9997,277.8364,270.5657,89.5157,-2.5179e-05,-3.93e-06,0.0,0 STARLINK-5313,1 55313U 23010AW  24120.15461269 -.00000393  00000-0 -25179-4 0  9991,2 55313  69.9997 277.8364 0003016 270.5657  89.5157 14.98326730 71665,6950.203,96.107,574.164,569.972,0.0
55313.0,STARLINK-5313,PAYLOAD,2024-04-29 13:19:26,14.98336302,0.0003214,69.999,276.8251,270.258,89.8211,-1.7793e-05,-3.05e-06,0.0,0 STARLINK-5313,1 55313U 23010AW  24120.55516546 -.00000305  00000-0 -17793-4 0  9990,2 55313  69.9990 276.8251 0003214 270.2580  89.8211 14.98336302 71721,6950.173,96.107,574.272,569.805,0.0
55313.0,STARLINK-5313,PAYLOAD,2024-04-29 14:55:34,14.98336574,0.0003205,69.999,276.6568,270.2112,89.8679,-1.2495e-05,-2.42e-06,0.0,0 STARLINK-5313,1 55313U 23010AW  24120.62192491 -.00000242  00000-0 -12495-4 0  9991,2 55313  69.9990 276.6568 0003205 270.2112  89.8679 14.98336574 72923,6950.173,96.107,574.265,569.81,0.0
55313.0,STARLINK-5313,PAYLOAD,2024-04-29 19:43:58,14.9833811,0.0003166,69.9992,276.152,270.136,89.9436,1.0709e-05,3.5e-07,0.0,0 STARLINK-5313,1 55313U 23010AW  24120.82220253  .00000035  00000-0  10709-4 0  9995,2 55313  69.9992 276.1520 0003166 270.1360  89.9436 14.98338110 72951,6950.168,96.106,574.233,569.832,0.0
55313.0,STARLINK-5313,PAYLOAD,2024-04-30 13:21:27,14.98323961,0.0003168,69.9992,274.3003,269.2728,90.8068,6.6656e-05,7.02e-06,0.0,0 STARLINK-5313,1 55313U 23010AW  24121.55656957  .00000702  00000-0  66656-4 0  9993,2 55313  69.9992 274.3003 0003168 269.2728  90.8068 14.98323961 71876,6950.212,96.107,574.278,569.875,0.0
55313.0,STARLINK-5313,PAYLOAD,2024-04-30 14:57:35,14.9832382,0.0003177,69.9993,274.1319,269.2077,90.8718,6.2747e-05,6.56e-06,0.0,0 STARLINK-5313,1 55313U 23010AW  24121.62332995  .00000656  00000-0  62747-4 0  9999,2 55313  69.9993 274.1319 0003177 269.2077  90.8718 14.98323820 73072,6950.212,96.107,574.285,569.869,0.0
55313.0,STARLINK-5313,PAYLOAD,2024-04-30 19:45:59,14.98326175,0.000322,69.9992,273.6267,268.5288,91.5502,8.2014e-05,8.86e-06,0.0,0 STARLINK-5313,1 55313U 23010AW  24121.82360809  .00000886  00000-0  82014-4 0  9990,2 55313  69.9992 273.6267 0003220 268.5288  91.5502 14.98326175 73101,6950.205,96.107,574.308,569.832,0.0
55313.0,STARLINK-5313,PAYLOAD,2024-05-01 10:11:12,14.98333528,0.000325,69.9992,272.1116,268.4932,91.5855,1.0323e-05,3e-07,0.0,0 STARLINK-5313,1 55313U 23010AW  24122.42444483  .00000030  00000-0  10323-4 0  9993,2 55313  69.9992 272.1116 0003250 268.4932  91.5855 14.98333528 72005,6950.182,96.107,574.306,569.788,0.0
55313.0,STARLINK-5313,PAYLOAD,2024-05-01 16:35:43,14.98338158,0.0003267,69.9992,271.4386,268.5277,91.5508,-4.1938e-06,-1.43e-06,0.0,0 STARLINK-5313,1 55313U 23010AW  24122.69148138 -.00000143  00000-0 -41938-5 0  9994,2 55313  69.9992 271.4386 0003267 268.5277  91.5508 14.98338158 73232,6950.168,96.106,574.303,569.762,0.0
55313.0,STARLINK-5313,PAYLOAD,2024-05-02 13:25:29,14.98327053,0.0003276,69.9992,269.2501,268.6386,91.4398,-1.596e-05,-2.83e-06,0.0,0 STARLINK-5313,1 55313U 23010AW  24123.55936686 -.00000283  00000-0 -15960-4 0  9993,2 55313  69.9992 269.2501 0003276 268.6386  91.4398 14.98327053 72178,6950.202,96.107,574.344,569.79,0.0
55313.0,STARLINK-5313,PAYLOAD,2024-05-03 13:27:29,14.98337275,0.0003255,69.9993,266.7253,269.6847,90.3939,4.6271e-05,4.59e-06,0.0,0 STARLINK-5313,1 55313U 23010AW  24124.56075649  .00000459  00000-0  46271-4 0  9990,2 55313  69.9993 266.7253 0003255 269.6847  90.3939 14.98337275 72328,6950.17,96.107,574.298,569.773,0.0
55313.0,STARLINK-5313,PAYLOAD,2024-05-03 19:52:01,14.98342273,0.0003257,69.9993,266.0523,269.1306,90.948,6.5494e-05,6.89e-06,0.0,0 STARLINK-5313,1 55313U 23010AW  24124.82779106  .00000689  00000-0  65494-4 0  9991,2 55313  69.9993 266.0523 0003257 269.1306  90.9480 14.98342273 73555,6950.155,96.106,574.284,569.756,0.0
55313.0,STARLINK-5313,PAYLOAD,2024-05-04 13:29:31,14.983176,0.0002895,70.0011,264.2028,269.1577,90.925,-3.8851e-05,-5.56e-06,0.0,0 STARLINK-5313,1 55313U 23010AW  24125.56217133 -.00000556  00000-0 -38851-4 0  9992,2 55313  70.0011 264.2028 0002895 269.1577  90.9250 14.98317600 72477,6950.231,96.108,574.108,570.084,0.0
